start=new Date('2022-07-31T00:00:00.000Z').valueOf();
sats=[{"OBJECT_TYPE":"PAYLOAD","EPHEMERIS_TYPE":"0","OBJECT_NAME":"STARLINK-4274","TLE_LINE2":"2 52865  53.2148 190.1096 0003143  11.2849 264.5359 15.73214468  1302","MEAN_MOTION_DDOT":"0.0000000000000","COUNTRY_CODE":"US","CENTER_NAME":"EARTH","RA_OF_ASC_NODE":"190.1096","APOAPSIS":"351.833","ELEMENT_SET_NO":"999","CLASSIFICATION_TYPE":"U","LAUNCH_DATE":"2022-06-17","TIME_SYSTEM":"UTC","ARG_OF_PERICENTER":"11.2849","PERIAPSIS":"347.604","MEAN_ELEMENT_THEORY":"SGP4","PERIOD":"91.532","MEAN_MOTION_DOT":"0.00052144","GP_ID":"209230054","FILE":"3525638","MEAN_MOTION":"15.73214468","REV_AT_EPOCH":"130","REF_FRAME":"TEME","INCLINATION":"53.2148","MEAN_ANOMALY":"264.5359","SITE":"AFETR","RCS_SIZE":"LARGE","DECAY_DATE":null,"ECCENTRICITY":"0.00031430","TLE_LINE1":"1 52865U 22062AM  22211.91667824  .00052144  00000-0  37335-3 0  9999","EPOCH":"2022-07-30T22:00:00.999936","BSTAR":"0.00037335000000","OBJECT_ID":"2022-062AM","SEMIMAJOR_AXIS":"6727.854","NORAD_CAT_ID":"52865"},{"TIME_SYSTEM":"UTC","ARG_OF_PERICENTER":"18.0866","PERIAPSIS":"347.599","MEAN_ELEMENT_THEORY":"SGP4","PERIOD":"91.532","MEAN_MOTION_DOT":"0.00044062","FILE":"3525617","GP_ID":"209204643","MEAN_MOTION":"15.73221207","REV_AT_EPOCH":"733","RA_OF_ASC_NODE":"190.1138","APOAPSIS":"351.800","ELEMENT_SET_NO":"999","LAUNCH_DATE":"2022-06-17","CLASSIFICATION_TYPE":"U","MEAN_MOTION_DDOT":"0.0000000000000","COUNTRY_CODE":"US","CENTER_NAME":"EARTH","OBJECT_TYPE":"PAYLOAD","EPHEMERIS_TYPE":"0","OBJECT_NAME":"STARLINK-4272","TLE_LINE2":"2 52866  53.2149 190.1138 0003122  18.0866 256.0756 15.73221207  7337","DECAY_DATE":null,"ECCENTRICITY":"0.00031220","TLE_LINE1":"1 52866U 22062AN  22211.91667824  .00044062  00000-0  31638-3 0  9990","EPOCH":"2022-07-30T22:00:00.999936","BSTAR":"0.00031638000000","OBJECT_ID":"2022-062AN","SEMIMAJOR_AXIS":"6727.835","NORAD_CAT_ID":"52866","INCLINATION":"53.2149","MEAN_ANOMALY":"256.0756","RCS_SIZE":"LARGE","SITE":"AFETR","REF_FRAME":"TEME"},{"TLE_LINE1":"1 52867U 22062AP  22211.91667824  .00053157  00000-0  38098-3 0  9993","DECAY_DATE":null,"ECCENTRICITY":"0.00036300","SEMIMAJOR_AXIS":"6727.948","NORAD_CAT_ID":"52867","EPOCH":"2022-07-30T22:00:00.999936","BSTAR":"0.00038098000000","OBJECT_ID":"2022-062AP","REF_FRAME":"TEME","MEAN_ANOMALY":"271.7378","INCLINATION":"53.2133","RCS_SIZE":"LARGE","SITE":"AFETR","RA_OF_ASC_NODE":"190.1078","APOAPSIS":"352.256","CLASSIFICATION_TYPE":"U","LAUNCH_DATE":"2022-06-17","ELEMENT_SET_NO":"999","ARG_OF_PERICENTER":"5.3556","PERIAPSIS":"347.371","TIME_SYSTEM":"UTC","FILE":"3525638","GP_ID":"209229798","REV_AT_EPOCH":"130","MEAN_MOTION":"15.73181305","PERIOD":"91.534","MEAN_ELEMENT_THEORY":"SGP4","MEAN_MOTION_DOT":"0.00053157","EPHEMERIS_TYPE":"0","OBJECT_NAME":"STARLINK-4126","OBJECT_TYPE":"PAYLOAD","TLE_LINE2":"2 52867  53.2133 190.1078 0003630   5.3556 271.7378 15.73181305  1302","MEAN_MOTION_DDOT":"0.0000000000000","COUNTRY_CODE":"US","CENTER_NAME":"EARTH"},{"TLE_LINE1":"1 52868U 22062AQ  22211.91667824  .00054513  00000-0  39018-3 0  9994","DECAY_DATE":null,"ECCENTRICITY":"0.00032090","NORAD_CAT_ID":"52868","SEMIMAJOR_AXIS":"6727.885","OBJECT_ID":"2022-062AQ","BSTAR":"0.00039018000000","EPOCH":"2022-07-30T22:00:00.999936","REF_FRAME":"TEME","MEAN_ANOMALY":"255.4461","INCLINATION":"53.2145","SITE":"AFETR","RCS_SIZE":"LARGE","APOAPSIS":"351.909","RA_OF_ASC_NODE":"190.1090","LAUNCH_DATE":"2022-06-17","CLASSIFICATION_TYPE":"U","ELEMENT_SET_NO":"999","PERIAPSIS":"347.591","ARG_OF_PERICENTER":"19.9393","TIME_SYSTEM":"UTC","GP_ID":"209204651","FILE":"3525618","MEAN_MOTION":"15.73203489","REV_AT_EPOCH":"733","MEAN_MOTION_DOT":"0.00054513","PERIOD":"91.533","MEAN_ELEMENT_THEORY":"SGP4","OBJECT_NAME":"STARLINK-4261","EPHEMERIS_TYPE":"0","OBJECT_TYPE":"PAYLOAD","TLE_LINE2":"2 52868  53.2145 190.1090 0003209  19.9393 255.4461 15.73203489  7331","MEAN_MOTION_DDOT":"0.0000000000000","COUNTRY_CODE":"US","CENTER_NAME":"EARTH"},{"REF_FRAME":"TEME","INCLINATION":"53.2137","MEAN_ANOMALY":"269.4114","SITE":"AFETR","RCS_SIZE":"LARGE","DECAY_DATE":null,"ECCENTRICITY":"0.00039850","TLE_LINE1":"1 52869U 22062AR  22211.91667824  .00052845  00000-0  37869-3 0  9993","BSTAR":"0.00037869000000","EPOCH":"2022-07-30T22:00:00.999936","OBJECT_ID":"2022-062AR","SEMIMAJOR_AXIS":"6727.937","NORAD_CAT_ID":"52869","OBJECT_TYPE":"PAYLOAD","EPHEMERIS_TYPE":"0","OBJECT_NAME":"STARLINK-4266","TLE_LINE2":"2 52869  53.2137 190.1091 0003985   8.3308 269.4114 15.73185359  7338","COUNTRY_CODE":"US","MEAN_MOTION_DDOT":"0.0000000000000","CENTER_NAME":"EARTH","RA_OF_ASC_NODE":"190.1091","APOAPSIS":"352.483","ELEMENT_SET_NO":"999","LAUNCH_DATE":"2022-06-17","CLASSIFICATION_TYPE":"U","TIME_SYSTEM":"UTC","ARG_OF_PERICENTER":"8.3308","PERIAPSIS":"347.121","PERIOD":"91.534","MEAN_ELEMENT_THEORY":"SGP4","MEAN_MOTION_DOT":"0.00052845","FILE":"3525618","GP_ID":"209204657","MEAN_MOTION":"15.73185359","REV_AT_EPOCH":"733"},{"SEMIMAJOR_AXIS":"6727.817","NORAD_CAT_ID":"52870","BSTAR":"0.00016916000000","EPOCH":"2022-07-30T22:00:00.999936","OBJECT_ID":"2022-062AS","TLE_LINE1":"1 52870U 22062AS  22211.91667824  .00023216  00000-0  16916-3 0  9995","DECAY_DATE":null,"ECCENTRICITY":"0.00032730","REF_FRAME":"TEME","RCS_SIZE":"LARGE","SITE":"AFETR","MEAN_ANOMALY":"265.2863","INCLINATION":"53.2150","CLASSIFICATION_TYPE":"U","LAUNCH_DATE":"2022-06-17","ELEMENT_SET_NO":"999","RA_OF_ASC_NODE":"190.1086","APOAPSIS":"351.884","FILE":"3525638","GP_ID":"209230438","MEAN_MOTION":"15.73227304","REV_AT_EPOCH":"130","MEAN_MOTION_DOT":"0.00023216","PERIOD":"91.532","MEAN_ELEMENT_THEORY":"SGP4","ARG_OF_PERICENTER":"11.2778","PERIAPSIS":"347.480","TIME_SYSTEM":"UTC","TLE_LINE2":"2 52870  53.2150 190.1086 0003273  11.2778 265.2863 15.73227304  1306","EPHEMERIS_TYPE":"0","OBJECT_NAME":"STARLINK-4195","OBJECT_TYPE":"PAYLOAD","CENTER_NAME":"EARTH","MEAN_MOTION_DDOT":"0.0000000000000","COUNTRY_CODE":"US"},{"CENTER_NAME":"EARTH","MEAN_MOTION_DDOT":"0.0000000000000","COUNTRY_CODE":"US","TLE_LINE2":"2 52871  53.2148 190.1021 0003150  12.2538 267.2873 15.73217757  1306","OBJECT_NAME":"STARLINK-4207","EPHEMERIS_TYPE":"0","OBJECT_TYPE":"PAYLOAD","MEAN_MOTION":"15.73217757","GP_ID":"209230182","FILE":"3525638","REV_AT_EPOCH":"130","MEAN_ELEMENT_THEORY":"SGP4","PERIOD":"91.532","MEAN_MOTION_DOT":"0.00043407","PERIAPSIS":"347.590","ARG_OF_PERICENTER":"12.2538","TIME_SYSTEM":"UTC","LAUNCH_DATE":"2022-06-17","CLASSIFICATION_TYPE":"U","ELEMENT_SET_NO":"999","APOAPSIS":"351.829","RA_OF_ASC_NODE":"190.1021","RCS_SIZE":"LARGE","SITE":"AFETR","MEAN_ANOMALY":"267.2873","INCLINATION":"53.2148","REF_FRAME":"TEME","NORAD_CAT_ID":"52871","SEMIMAJOR_AXIS":"6727.845","OBJECT_ID":"2022-062AT","BSTAR":"0.00031181000000","EPOCH":"2022-07-30T22:00:00.999936","TLE_LINE1":"1 52871U 22062AT  22211.91667824  .00043407  00000-0  31181-3 0  9991","ECCENTRICITY":"0.00031500","DECAY_DATE":null},{"MEAN_MOTION_DDOT":"0.0000000000000","COUNTRY_CODE":"US","CENTER_NAME":"EARTH","OBJECT_NAME":"STARLINK-4213","EPHEMERIS_TYPE":"0","OBJECT_TYPE":"PAYLOAD","TLE_LINE2":"2 52872  53.2148 190.1040 0003010  12.7343 265.6399 15.73218706  1302","PERIAPSIS":"347.682","ARG_OF_PERICENTER":"12.7343","TIME_SYSTEM":"UTC","GP_ID":"209229927","REV_AT_EPOCH":"130","FILE":"3525638","MEAN_MOTION":"15.73218706","PERIOD":"91.532","MEAN_ELEMENT_THEORY":"SGP4","MEAN_MOTION_DOT":"-0.00026490","APOAPSIS":"351.732","RA_OF_ASC_NODE":"190.1040","CLASSIFICATION_TYPE":"U","LAUNCH_DATE":"2022-06-17","ELEMENT_SET_NO":"999","MEAN_ANOMALY":"265.6399","INCLINATION":"53.2148","SITE":"AFETR","RCS_SIZE":"LARGE","REF_FRAME":"TEME","TLE_LINE1":"1 52872U 22062AU  22211.91667824 -.00026490  00000-0 -18470-3 0  9993","DECAY_DATE":null,"ECCENTRICITY":"0.00030100","NORAD_CAT_ID":"52872","SEMIMAJOR_AXIS":"6727.842","OBJECT_ID":"2022-062AU","BSTAR":"-0.00018470000000","EPOCH":"2022-07-30T22:00:00.999936"},{"INCLINATION":"53.2150","MEAN_ANOMALY":"270.8648","RCS_SIZE":"LARGE","SITE":"AFETR","REF_FRAME":"TEME","DECAY_DATE":null,"ECCENTRICITY":"0.00036850","TLE_LINE1":"1 52873U 22062AV  22211.91667824  .00097098  00000-0  68962-3 0  9995","OBJECT_ID":"2022-062AV","EPOCH":"2022-07-30T22:00:00.999936","BSTAR":"0.00068962000000","NORAD_CAT_ID":"52873","SEMIMAJOR_AXIS":"6728.043","COUNTRY_CODE":"US","MEAN_MOTION_DDOT":"0.0000000000000","CENTER_NAME":"EARTH","OBJECT_TYPE":"PAYLOAD","OBJECT_NAME":"STARLINK-4211","EPHEMERIS_TYPE":"0","TLE_LINE2":"2 52873  53.2150 190.1014 0003685   9.6425 270.8648 15.73148322  1302","TIME_SYSTEM":"UTC","PERIAPSIS":"347.428","ARG_OF_PERICENTER":"9.6425","PERIOD":"91.536","MEAN_MOTION_DOT":"0.00097098","MEAN_ELEMENT_THEORY":"SGP4","GP_ID":"209230055","REV_AT_EPOCH":"130","FILE":"3525638","MEAN_MOTION":"15.73148322","APOAPSIS":"352.387","RA_OF_ASC_NODE":"190.1014","ELEMENT_SET_NO":"999","LAUNCH_DATE":"2022-06-17","CLASSIFICATION_TYPE":"U"},{"MEAN_ANOMALY":"265.0472","INCLINATION":"53.2149","RCS_SIZE":"LARGE","SITE":"AFETR","REF_FRAME":"TEME","TLE_LINE1":"1 52874U 22062AW  22211.91667824 -.00058069  00000-0 -41096-3 0  9992","ECCENTRICITY":"0.00037540","DECAY_DATE":null,"NORAD_CAT_ID":"52874","SEMIMAJOR_AXIS":"6727.733","OBJECT_ID":"2022-062AW","BSTAR":"-0.00041096000000","EPOCH":"2022-07-30T22:00:00.999936","MEAN_MOTION_DDOT":"0.0000000000000","COUNTRY_CODE":"US","CENTER_NAME":"EARTH","OBJECT_NAME":"STARLINK-4210","EPHEMERIS_TYPE":"0","OBJECT_TYPE":"PAYLOAD","TLE_LINE2":"2 52874  53.2149 190.1032 0003754  13.8823 265.0472 15.73257022  1306","PERIAPSIS":"347.072","ARG_OF_PERICENTER":"13.8823","TIME_SYSTEM":"UTC","FILE":"3525638","GP_ID":"209230567","REV_AT_EPOCH":"130","MEAN_MOTION":"15.73257022","PERIOD":"91.530","MEAN_ELEMENT_THEORY":"SGP4","MEAN_MOTION_DOT":"-0.00058069","APOAPSIS":"352.123","RA_OF_ASC_NODE":"190.1032","CLASSIFICATION_TYPE":"U","LAUNCH_DATE":"2022-06-17","ELEMENT_SET_NO":"999"}];
